GLOBALSTAR M063 [+]     
1 26081U 00008A   23354.62897899 -.00000078  00000+0  64050-4 0  9994
2 26081  51.9951 105.7126 0004002   2.0647 100.3773 11.86148619 92957
GLOBALSTAR M062 [-]     
1 26082U 00008B   23354.93225816 -.00000044  00000+0  38932-3 0  9995
2 26082  51.9842 256.2162 0007993  35.0680  46.3890 12.43423279 91415
GLOBALSTAR M060 [-]     
1 26083U 00008C   23354.74907150 -.00000028  00000+0  62461-3 0  9999
2 26083  51.9997 139.7376 0004680 100.6253   6.5152 12.17621226 86049
GLOBALSTAR M064 [-]     
1 26084U 00008D   23354.76255750 -.00000063  00000+0  29176-3 0  9999
2 26084  52.0003 210.6118 0002746  86.8983 273.2164 11.88513795102367
GLOBALSTAR M065 [+]     
1 31571U 07020A   23355.42911556 -.00000083  00000+0  11333-3 0  9992
2 31571  51.9902  81.2178 0010253 180.3303 260.1296 12.61960824765059
GLOBALSTAR M069 [+]     
1 31573U 07020C   23354.98824310 -.00000066  00000+0  20830-3 0  9998
2 31573  51.9975  38.6206 0000252 184.2413 243.5027 12.62262514765758
GLOBALSTAR M072 [+]     
1 31574U 07020D   23354.59100862 -.00000120  00000+0 -93193-4 0  9990
2 31574  52.0072 135.6057 0001484 118.1096 321.9930 12.62269178764040
GLOBALSTAR M071 [P]     
1 31576U 07020F   23354.46835351 -.00000060  00000+0  24227-3 0  9999
2 31576  52.0097  45.2301 0000233  57.5987  46.0704 12.62263288426947
